[{"OBJECT_NAME":"DMSP 5D-3 F16 (USA 172)","OBJECT_ID":"2003-048A","EPOCH":"2026-03-09T23:47:05.957088","MEAN_MOTION":14.14462092,"ECCENTRICITY":0.00081219,"INCLINATION":98.9993,"RA_OF_ASC_NODE":92.1206,"ARG_OF_PERICENTER":71.9224,"MEAN_ANOMALY":346.9229,"EPHEMERIS_TYPE":0,"CLASSIFICATION_TYPE":"U","NORAD_CAT_ID":28054,"ELEMENT_SET_NO":999,"REV_AT_EPOCH":15546,"BSTAR":0.0001083613,"MEAN_MOTION_DOT":1.62e-6,"MEAN_MOTION_DDOT":0},{"OBJECT_NAME":"FENGYUN 1C DEB","OBJECT_ID":"1999-025DE","EPOCH":"2026-03-08T12:07:05.581344","MEAN_MOTION":14.02394882,"ECCENTRICITY":0.01441686,"INCLINATION":98.3556,"RA_OF_ASC_NODE":254.2384,"ARG_OF_PERICENTER":85.7708,"MEAN_ANOMALY":295.4607,"EPHEMERIS_TYPE":0,"CLASSIFICATION_TYPE":"U","NORAD_CAT_ID":29812,"ELEMENT_SET_NO":999,"REV_AT_EPOCH":97374,"BSTAR":0.0012930637,"MEAN_MOTION_DOT":2.138e-5,"MEAN_MOTION_DDOT":0}]
